#dP2022 10 18  0  0  0.00000000      96 __u+U ITR14 FIT  IAC
## 2232 172800.00000000   900.00000000 59870 0.0000000000000
+  129   C01C02C03C04C05C06C07C08C09C10C11C12C13C14C16C19C20
+        C21C22C23C24C25C26C27C28C29C30C32C33C34C35C36C37C38
+        C39C40C41C42C43C44C45C46C59C60E01E02E03E04E05E07E08
+        E09E10E11E12E13E14E15E18E19E21E24E25E26E27E30E31E33
+        E34E36G01G02G03G04G05G06G07G08G09G10G11G12G13G14G15
+        G16G17G18G19G20G21G22G23G24G25G26G27G28G29G30G31G32
+        J02J03J04J07R01R02R03R04R05R06R07R08R09R10R11R12R13
+        R14R15R17R18R19R20R21R22R23R24  0  0  0  0  0  0  0
++         0 16 17 17 17  9  9  9  9  9  8  8  9  9  9  7  7
++         7  7  7  7  7  7  7  7  7  7  7  7  7  7  7  7  8
++         8  8  7  7  7  7  7  7 17 19  4  5  4  4  4  4  4
++         4  5  4  4  4  5  4  5  4  5  4  4  4  4  4  4  4
++         5  5  4  4  4  4  4  3  4  4  3  4  3  4  4  4  4
++         3  4  4  4  4  4  4  4  4  3  3  4  4  4  4  4  4
++         8  8  8 17  7  6  6  6  6 15  6  6  6 15  6  6  7
++         6  6  6  6  7  7  6  8 15  6  0  0  0  0  0  0  0
%c M  cc GPS ccc cccc cccc cccc cccc ccccc ccccc ccccc ccccc
%c cc cc ccc ccc cccc cccc cccc cccc ccccc ccccc ccccc ccccc
%f  0.0000000  0.000000000  0.00000000000  0.000000000000000
%f  0.0000000  0.000000000  0.00000000000  0.000000000000000
%i    0    0    0    0      0      0      0      0         0
%i    0    0    0    0      0      0      0      0         0
/* INFORMATION & ANALYSIS CENTER (IAC)            RAPID DATA
/* S/V CLOCKS ARE ALIGNED TO GNSS TIME                      
/* G:C1WC2W R:C1PC2P E:C1XC5X C:C2IC6I J:C1CC2S             
/* PCV:IGS14_2218 OL/AL:FES2004  NONE     YN ORB:CoN CLK:CoN
*  2022 10 18 20  0  0.00000000
PC01      0.000000      0.000000      0.000000 999999.999999
PC02   4347.762803  41859.008051   -455.623486    604.887682
PC03 -14691.961699  39494.230007    183.935758   -261.534246
PC04 -39588.387005  14472.737872    553.778665    127.869630
PC05  21856.452509  36001.344826   -940.512133    269.073848
PC06  -4671.431504  24950.535568 -33637.537151    891.260428
PC07 -18012.882629  33720.447745  17662.337868    337.698231
PC08  -5099.776659  39511.447350  14091.503562    496.860850
PC09   5654.267557  28293.772605 -30210.120461   -831.110465
PC10 -10255.139426  33607.554667  23256.684216     81.765736
PC11 -21371.205132   3752.797548  17596.867767   -343.760257
PC12 -26314.601222  -9060.428475   1914.518219   -476.972025
PC13    501.762173  41925.426919   5907.017303    110.376956
PC14 -23017.415445  15075.875046   4499.234750    580.939069
PC16  -9382.596495  22170.198186 -34425.022169    127.748233
PC19  18819.793807 -20015.213383   4953.799625   -906.443686
PC20  23632.163795  -9200.462920 -11669.880387    861.073441
PC21 -14488.479498  -8013.761464  22466.681068   -631.693751
PC22   2969.103611 -19769.272587  19469.102328   -843.356257
PC23   3034.139353  27665.290135  -2095.030577   -620.521126
PC24 -16526.970247   -820.843199 -22474.595120   -675.945973
PC25  -8564.796865  20386.467035 -17042.897027     11.636035
PC26 -14512.520947 -18443.993046 -15080.650516    -23.352890
PC27  23242.864784  13948.332997   6598.775917     37.923916
PC28   8035.530643  17894.220919  19858.388439     25.815782
PC29  12806.466729 -11678.337195 -21875.535227     28.586540
PC30  25971.907807   1554.094565 -10072.571699      0.583668
PC32  14492.924086   7974.548191 -22469.734926   -753.898219
PC33 -18757.555848  20082.225253  -4832.731881   -932.781082
PC34 -25624.788373   -749.032854  11036.834287     19.646715
PC35  -7055.411870 -17598.002526 -20491.213169     47.879374
PC36   9413.120386 -19655.594516  17449.854623   -750.936574
PC37  13587.450360  19900.923520  14113.002092   -550.793374
PC38  -9918.649915  35673.252390  20357.488704     31.996580
PC39 -13745.812778  20148.177190 -34397.156252     -0.663878
PC40 -25764.416559  28838.173546  16550.681626     -6.300567
PC41  -3432.560011  19992.116493 -19123.028687   -186.184651
PC42 -23478.178998   8179.538546  12692.378545   -498.549776
PC43 -13640.519642  11301.689174  21560.434874     20.281276
PC44 -23615.288759 -13259.426878  -6792.634272     85.734899
PC45  -3270.822023 -27643.124480   1765.173758    -11.433121
PC46  16185.227679  -1137.858761  22709.120799     -7.166125
PC59 -32293.836593  27107.437819   -508.008482      0.163181
PC60   7366.176797  41508.602166   1110.533687 999999.999999
PE01  14012.647067   9613.420172  24244.140860   -548.968344
PE02 -14111.076360  -9390.625760 -24260.460638    331.543936
PE03 -25649.503075  -5642.563507  13635.026744   -611.081896
PE04  28338.908545  -7471.454345   4150.328032  -1139.492050
PE05  -7811.818634 -15744.063394  23812.516225   -133.256313
PE07 -14266.429846  16528.798478 -19985.841914   -714.333919
PE08 -28303.360983   7556.072331  -4217.202541   -617.584684
PE09  14440.983672 -16406.291231  19961.851349   -697.891489
PE10  12033.120350 -10593.793357 -24887.943736   -484.601264
PE11   3164.131675 -19089.605693 -22408.537805   1730.354496
PE12  18398.360039  -1192.561959 -23156.519795   -229.350606
PE13  -3825.421278  18483.546990  22806.623428    430.673312
PE14  26197.481170 -12262.989723 -14301.822697     31.469907
PE15 -18472.321071    940.255313  23114.024850    713.203559
PE18 -20743.563069   7308.706312   8841.273129   -846.170629
PE19  23981.700618   7324.997095 -15727.323182  -4231.181493
PE21   2103.485127  24842.446963  15965.583987 999999.999999
PE24  12579.822777 -26613.817855   2971.865314   -898.500672
PE25  -1867.540286 -24997.436561 -15725.090003   -590.518407
PE26  13453.848846  25043.189958   8276.230208  -1742.498496
PE27 -11902.563828  27033.400017  -2010.334529   -418.497465
PE30 -18914.260621  12404.008512 -19104.369213   -926.957901
PE31  18776.289368 -13269.186072  18653.085180   -506.055956
PE33  22127.775214  17061.868197  -9769.640289   -454.827285
PE34 -22179.388334 -16879.054959   9935.471454    -10.131972
PE36 -12917.973169 -25015.859020  -9129.326186   -447.830256
PG01 -18810.972234  -9167.648768  16249.699052    265.449573
PG02  19945.338605   9310.776605 -14122.452797   -641.802570
PG03 -15858.198895   -132.324042  21164.206431   -365.792805
PG04 -26391.212877  -1242.727811   3221.574803   -101.434257
PG05  10592.307555  12476.263721 -21068.972077   -100.899120
PG06   3555.630912  22153.773132  14215.358156    494.901358
PG07 -13750.382408   6780.552530 -21290.587451    297.366555
PG08 -22433.452278  -6844.925446 -12844.011149    -89.489746
PG09 -24177.361874   7844.602768  -7861.674690   -281.381611
PG10  11131.882170 -23923.266510    494.901097     -8.069597
PG11  11554.600257  23695.564298   3400.758438    -27.458264
PG12  15797.366928   1562.525079  21011.023274   -293.801985
PG13  15438.601029  13033.552728 -17508.689146    408.478174
PG14 -13284.437208  22879.974665  -1473.090242    -93.663773
PG15  23075.102268   4991.714281 -12891.949215    -19.811266
PG16  -4768.705470 -17812.693120 -19220.159783   -526.375537
PG17 -14070.704600  12919.390582  18922.763619    669.966132
PG18  12310.653108  -8491.287590 -21951.438598     10.016191
PG19  -2384.097473  14658.127578  21773.171920    225.563804
PG20   2691.478431  23260.859577 -12738.251590    477.306145
PG21 -20584.405112 -14899.039862   9546.561486    157.786511
PG22   -948.187118 -15391.066349  22052.172145    348.126260
PG23  15906.822245 -18674.782088 -10019.761461     -1.059578
PG24  20735.194747  11408.558187  12137.623271     94.733979
PG25  17721.184856 -10865.385802  16079.634547    383.730725
PG26   1244.657142 -24072.223969 -10868.133443    232.925895
PG27 -12158.612748 -12904.960793 -20115.138256    195.719072
PG28  -7930.059822  24250.410272   8326.802628    327.281762
PG29  25317.101961  -4520.028696  -6850.943948   -560.643422
PG30  -5126.622386  17642.593598 -19002.399394   -537.197489
PG31  -3873.784235 -22646.166764  12763.627198   -197.238730
PG32  10258.763727 -14698.690801  19684.606142   -267.559605
PJ02 -24238.168310  32484.196320  -7199.211700     -7.556227
PJ03 -27084.173848  22058.607711  28705.460741     -3.103408
PJ04 -33183.548513  26184.530963   4603.831018    111.933254
PJ07 -25388.673333  33672.853544    -48.557148     -0.002269
PR01  -1265.066767  12952.132292 -21943.969492     16.456081
PR02  16107.617046   1753.127033 -19640.430372    -23.040827
PR03  22892.846020  -9695.744721  -5525.216342     65.708797
PR04  16923.205357 -15316.826796  11390.375513    161.656579
PR05   1679.151946 -12646.471586  22086.668992    101.456098
PR06 -17029.588087   -537.406738  18976.687840    -75.700106
PR07 -22967.149525  10065.065296   4860.456740     42.792674
PR08 -16810.516951  15440.402798 -11373.279926    -67.686573
PR09  -9884.321716 -12666.817692 -19818.093498     82.750020
PR10 -10842.980314   4747.174094 -22607.492542    -87.003269
PR11  -6016.953116  21307.357501 -12642.007593     24.177423
PR12   2570.114935  24693.240032   5926.446444     22.141690
PR13   9178.962541  14137.929724  19134.580696    -27.940563
PR14  10803.522753  -6457.265089  22204.198875     24.199455
PR15   5929.891126 -21848.252215  11779.702733     93.137673
PR17  19341.259020   3072.033593 -16362.094073    570.265321
PR18   6498.316504  -8233.048230 -23232.822680     47.734038
PR19  -8053.956434 -15271.370666 -18768.535929   -207.775322
PR20 -21131.910907 -14302.906574   -617.998314    -80.459638
PR21 -18379.904445  -2057.235402  17551.936446   -342.626171
PR22  -6412.615083   8775.297427  23104.786343     14.548720
PR23  12849.684231  16037.193192  15112.012773    -58.968735
PR24  21687.550013  13453.765401    -13.078402    121.132102
EOF
